[{"OBJECT_NAME":"STARLINK-36129","OBJECT_ID":"2025-281AC","EPOCH":"2026-03-09T03:43:32.636640","MEAN_MOTION":15.27575623,"ECCENTRICITY":0.00016754,"INCLINATION":43.0031,"RA_OF_ASC_NODE":346.5022,"ARG_OF_PERICENTER":285.5594,"MEAN_ANOMALY":74.5073,"EPHEMERIS_TYPE":0,"CLASSIFICATION_TYPE":"U","NORAD_CAT_ID":66874,"ELEMENT_SET_NO":999,"REV_AT_EPOCH":1609,"BSTAR":0.0012840742,"MEAN_MOTION_DOT":0.00035237,"MEAN_MOTION_DDOT":0},{"OBJECT_NAME":"CZ-4C R\/B","OBJECT_ID":"2013-037D","EPOCH":"2026-03-09T18:06:56.075616","MEAN_MOTION":15.35625196,"ECCENTRICITY":0.00667653,"INCLINATION":97.9623,"RA_OF_ASC_NODE":344.221,"ARG_OF_PERICENTER":268.5523,"MEAN_ANOMALY":90.807,"EPHEMERIS_TYPE":0,"CLASSIFICATION_TYPE":"U","NORAD_CAT_ID":39211,"ELEMENT_SET_NO":999,"REV_AT_EPOCH":69561,"BSTAR":0.000391022,"MEAN_MOTION_DOT":0.00014492,"MEAN_MOTION_DDOT":0}]
